ORBCOMM FM20            
1 25416U 98046D   25295.38419786  .00001454  00000+0  52821-3 0  9998
2 25416  44.9944 298.7853 0002807 264.4120  95.6408 14.37498146422560
ORBCOMM FM16            
1 25417U 98046E   25295.50348958  .00002183  00000+0  74168-3 0  9993
2 25417  44.9928 288.0778 0005884 243.5374 116.4872 14.39308306422598
ORBCOMM FM15            
1 25418U 98046F   25295.30322414  .00001902  00000+0  65682-3 0  9990
2 25418  44.9971 294.5590 0005616 243.3300 116.6973 14.38938105422556
ORBCOMM FM14            
1 25419U 98046G   25295.35742233  .00001815  00000+0  62407-3 0  9996
2 25419  44.9943 292.1607 0004420 246.3353 113.7032 14.39335808422536
ORBCOMM FM13            
1 25420U 98046H   25295.30668347  .00001775  00000+0  62774-3 0  9998
2 25420  44.9977 301.6452 0005880 221.0235 139.0171 14.38008122421538
ORBCOMM FM21            
1 25475U 98053A   25295.55192816  .00001582  00000+0  56901-3 0  9997
2 25475  45.0096  26.2260 0002580 190.0288 170.0509 14.37633689415574
ORBCOMM FM22            
1 25476U 98053B   25295.21605728  .00001939  00000+0  67115-3 0  9997
2 25476  45.0088  21.6136 0003948 174.2775 185.8120 14.38764243415565
ORBCOMM FM23            
1 25477U 98053C   25295.53523917  .00001735  00000+0  61672-3 0  9998
2 25477  45.0097  28.2354 0003239 174.5458 185.5426 14.37852445415720
